{"_default": { "12": {"norad_id": "43111", "name": "CARTOSAT 2F", "tle1": "1 43111U 18004A   26162.21461576  .00003216  00000-0  15622-3 0  9993", "tle2": "2 43111  97.4795 221.9071 0000294 292.3489  67.7714 15.19168158466426", "object_type": "PAYLOAD", "criticality_score": 9.0, "last_updated": "2026-06-11T13:56:27.956741+00:00", "maneuver_count": 0}, "44": {"norad_id": "42847", "name": "CORVUS BC1", "tle1": "1 42847U 17042Y   26161.94567167  .00003247  00000-0  22394-3 0  9999", "tle2": "2 42847  97.4079 324.3490 0013190 108.3664 251.8999 15.06422630486156", "object_type": "PAYLOAD", "criticality_score": 9.0, "last_updated": "2026-06-11T13:56:27.956741+00:00", "maneuver_count": 0}, "45": {"norad_id": "42828", "name": "NORSAT 2", "tle1": "1 42828U 17042D   26162.24161551  .00008869  00000-0  39288-3 0  9994", "tle2": "2 42828  97.4033 335.7777 0010779  75.9362 284.3072 15.21810578486830", "object_type": "PAYLOAD", "criticality_score": 9.0, "last_updated": "2026-06-11T13:56:27.956741+00:00", "maneuver_count": 0}, "46": {"norad_id": "42767", "name": "CARTOSAT 2E", "tle1": "1 42767U 17036C   26162.31432616  .00003267  00000-0  15813-3 0  9995", "tle2": "2 42767  97.4277 222.2136 0002731 345.1869  14.9285 15.19275677497257", "object_type": "PAYLOAD", "criticality_score": 9.0, "last_updated": "2026-06-11T13:56:27.956741+00:00", "maneuver_count": 0}, "80": {"norad_id": "43017", "name": "AO-91", "tle1": "1 43017U 17073E   26162.12228750  .00008448  00000-0  36925-3 0  9999", "tle2": "2 43017  97.4719  29.4615 0150507 350.2461   9.5854 15.12618427464473", "object_type": "PAYLOAD", "criticality_score": 9.0, "last_updated": "2026-06-11T13:56:27.956741+00:00", "maneuver_count": 0}, "81": {"norad_id": "43012", "name": "CZ-4C R/B", "tle1": "1 43012U 17072C   26162.21067912  .00000431  00000-0  94109-4 0  9997", "tle2": "2 43012  98.5789 270.0148 0122700 169.7864 190.5871 14.58776196455765", "object_type": "ROCKET_BODY", "criticality_score": 9.0, "last_updated": "2026-06-11T13:56:27.956741+00:00", "maneuver_count": 0}, "82": {"norad_id": "42829", "name": "TECHNOSAT", "tle1": "1 42829U 17042E   26162.19870278  .00003039  00000-0  21801-3 0  9998", "tle2": "2 42829  97.4261 320.0853 0018786 113.2228 247.0979 15.04916875485805", "object_type": "PAYLOAD", "criticality_score": 9.0, "last_updated": "2026-06-11T13:56:27.956741+00:00", "maneuver_count": 0}, "83": {"norad_id": "42794", "name": "DSAT", "tle1": "1 42794U 17036AF  26162.22701941  .00005210  00000-0  24555-3 0  9998", "tle2": "2 42794  97.5550 141.1584 0081807 181.1002 179.0064 15.16973581489958", "object_type": "PAYLOAD", "criticality_score": 9.0, "last_updated": "2026-06-11T13:56:27.956741+00:00", "maneuver_count": 0}, "107": {"norad_id": "42831", "name": "FLYING LAPTOP", "tle1": "1 42831U 17042G   26162.31957682  .00003348  00000-0  26502-3 0  9996", "tle2": "2 42831  97.4660 318.0797 0019275 140.7203 219.5424 15.01107587485579", "object_type": "PAYLOAD", "criticality_score": 9.0, "last_updated": "2026-06-11T13:56:27.956741+00:00", "maneuver_count": 0}, "108": {"norad_id": "41948", "name": "CARTOSAT 2D", "tle1": "1 41948U 17008A   26162.29670969  .00002957  00000-0  14336-3 0  9990", "tle2": "2 41948  97.4114 221.7122 0003650 256.5749 103.5079 15.19288324516687", "object_type": "PAYLOAD", "criticality_score": 9.0, "last_updated": "2026-06-11T13:56:27.956741+00:00", "maneuver_count": 0}, "150": {"norad_id": "42846", "name": "CORVUS BC2", "tle1": "1 42846U 17042X   26162.01678434  .00002611  00000-0  18161-3 0  9998", "tle2": "2 42846  97.4050 323.6077 0014191 129.5203 230.7282 15.06253815486139", "object_type": "PAYLOAD", "criticality_score": 9.0, "last_updated": "2026-06-11T13:56:27.956741+00:00", "maneuver_count": 0}, "180": {"norad_id": "43016", "name": "MAKERSAT 0", "tle1": "1 43016U 17073D   26161.90958102  .00017326  00000-0  47401-3 0  9990", "tle2": "2 43016  97.4633  44.3797 0105625 295.7456  63.2913 15.31878725465500", "object_type": "PAYLOAD", "criticality_score": 9.0, "last_updated": "2026-06-11T13:56:27.956741+00:00", "maneuver_count": 0}, "189": {"norad_id": "41914", "name": "JILIN-1-03", "tle1": "1 41914U 17002B   26162.24849292  .00010886  00000-0  26203-3 0  9995", "tle2": "2 41914  97.1948 169.4170 0006039 172.7390 187.3946 15.41431560520942", "object_type": "PAYLOAD", "criticality_score": 9.0, "last_updated": "2026-06-11T13:56:27.956741+00:00", "maneuver_count": 0}, "191": {"norad_id": "43022", "name": "JILIN-01-04", "tle1": "1 43022U 17074A   26162.24725379  .00011309  00000-0  26470-3 0  9992", "tle2": "2 43022  97.4849 271.7023 0003645 198.2132 161.8985 15.42292213473351", "object_type": "PAYLOAD", "criticality_score": 9.0, "last_updated": "2026-06-11T13:56:27.956741+00:00", "maneuver_count": 0}, "192": {"norad_id": "43023", "name": "JILIN-01-05", "tle1": "1 43023U 17074B   26162.24973769  .00007077  00000-0  21908-3 0  9999", "tle2": "2 43023  97.4856 268.3242 0003924 239.4664 120.6191 15.33781781473099", "object_type": "PAYLOAD", "criticality_score": 9.0, "last_updated": "2026-06-11T13:56:27.956741+00:00", "maneuver_count": 0}, "193": {"norad_id": "43024", "name": "JILIN-01-06", "tle1": "1 43024U 17074C   26162.22065911  .00004653  00000-0  14559-3 0  9990", "tle2": "2 43024  97.4783 265.3118 0005350 256.8520 103.2126 15.33626984472926", "object_type": "PAYLOAD", "criticality_score": 9.0, "last_updated": "2026-06-11T13:56:27.956741+00:00", "maneuver_count": 0}, "217": {"norad_id": "43010", "name": "FENGYUN 3D", "tle1": "1 43010U 17072A   26162.22747529  .00000037  00000-0  39302-4 0  9991", "tle2": "2 43010  99.0121 136.5421 0002662  71.3717 288.7747 14.19738182444140", "object_type": "PAYLOAD", "criticality_score": 9.0, "last_updated": "2026-06-11T13:56:27.956741+00:00", "maneuver_count": 0}, "221": {"norad_id": "43013", "name": "NOAA 20", "tle1": "1 43013U 17073A   26162.22144924  .00000044  00000-0  41840-4 0  9993", "tle2": "2 43013  98.7772 101.7371 0000372  53.8840 306.2370 14.19510667443623", "object_type": "PAYLOAD", "criticality_score": 9.0, "last_updated": "2026-06-11T13:56:27.956741+00:00", "maneuver_count": 0}, "232": {"norad_id": "42840", "name": "LEMUR 2 FURIAUS", "tle1": "1 42840U 17042R   26161.41040731  .00016426  00000-0  56652-3 0  9994", "tle2": "2 42840  97.3771 340.0388 0008501  89.8327 270.3888 15.30030493487172", "object_type": "PAYLOAD", "criticality_score": 9.0, "last_updated": "2026-06-11T13:56:27.956741+00:00", "maneuver_count": 0}, "239": {"norad_id": "42835", "name": "WNISAT 1R", "tle1": "1 42835U 17042L   26162.16176967  .00001969  00000-0  15564-3 0  9995", "tle2": "2 42835  97.4829 318.5000 0010427 167.7200 192.4281 15.01736332485608", "object_type": "PAYLOAD", "criticality_score": 9.0, "last_updated": "2026-06-11T13:56:27.956741+00:00", "maneuver_count": 0}, "293": {"norad_id": "43005", "name": "MOHAMMED VI-A", "tle1": "1 43005U 17070A   26162.31728284  .00000715  00000-0  10851-3 0  9990", "tle2": "2 43005  97.9556 234.7293 0001464  73.9382 286.1989 14.77062882463115", "object_type": "PAYLOAD", "criticality_score": 9.0, "last_updated": "2026-06-11T13:56:27.956741+00:00", "maneuver_count": 0}, "348": {"norad_id": "43072", "name": "IRIDIUM 116", "tle1": "1 43072U 17083C   26162.00559221  .00000035  00000-0  53623-5 0  9998", "tle2": "2 43072  86.3959 324.5864 0001886  95.2789 264.8622 14.34217473443280", "object_type": "PAYLOAD", "criticality_score": 9.0, "last_updated": "2026-06-11T13:56:27.956741+00:00", "maneuver_count": 0}, "349": {"norad_id": "42803", "name": "IRIDIUM 113", "tle1": "1 42803U 17039A   26162.17050048  .00000048  00000-0  10196-4 0  9992", "tle2": "2 42803  86.3966 324.6945 0002315  89.7880 270.3581 14.34217598470327", "object_type": "PAYLOAD", "criticality_score": 9.0, "last_updated": "2026-06-11T13:56:27.956741+00:00", "maneuver_count": 0}, "350": {"norad_id": "43073", "name": "IRIDIUM 130", "tle1": "1 43073U 17083D   26161.97387820 -.00000104  00000-0 -44358-4 0  9991", "tle2": "2 43073  86.3964 324.8745 0001840  88.9003 271.2403 14.34217327443227", "object_type": "PAYLOAD", "criticality_score": 9.0, "last_updated": "2026-06-11T13:56:27.956741+00:00", "maneuver_count": 0}, "419": {"norad_id": "43099", "name": "SUPERVIEW-1 03", "tle1": "1 43099U 18002A   26162.24958016  .00015267  00000-0  38181-3 0  9993", "tle2": "2 43099  97.3134 247.0969 0046859 200.7916 159.1426 15.39054024467455", "object_type": "PAYLOAD", "criticality_score": 9.0, "last_updated": "2026-06-11T13:56:27.956741+00:00", "maneuver_count": 0}, "432": {"norad_id": "41898", "name": "TANSAT", "tle1": "1 41898U 16081A   26162.28588535  .00000467  00000-0  10779-3 0  9991", "tle2": "2 41898  98.5366 162.3692 0019956 331.2440  28.7658 14.59946641503761", "object_type": "PAYLOAD", "criticality_score": 9.0, "last_updated": "2026-06-11T13:56:27.956741+00:00", "maneuver_count": 0}, "437": {"norad_id": "42837", "name": "LEMUR 2 GREENBERG", "tle1": "1 42837U 17042N   26161.74817130  .00014567  00000-0  48598-3 0  9995", "tle2": "2 42837  97.3819 342.4043 0009149  36.3346 323.8515 15.31129963487401", "object_type": "PAYLOAD", "criticality_score": 9.0, "last_updated": "2026-06-11T13:56:27.956741+00:00", "maneuver_count": 0}, "499": {"norad_id": "43146", "name": "LKW-3", "tle1": "1 43146U 18006A   26162.25280369  .00008390  00000-0  24855-3 0  9992", "tle2": "2 43146  97.6603 322.5958 0002541 350.9204   9.1992 15.35131234467803", "object_type": "PAYLOAD", "criticality_score": 9.0, "last_updated": "2026-06-11T13:56:27.956741+00:00", "maneuver_count": 0}, "506": {"norad_id": "43080", "name": "LKW-2", "tle1": "1 43080U 17084A   26162.25920568  .00006842  00000-0  26664-3 0  9996", "tle2": "2 43080  97.1200 202.3326 0000392 199.8282 160.2942 15.26262196470787", "object_type": "PAYLOAD", "criticality_score": 9.0, "last_updated": "2026-06-11T13:56:27.956741+00:00", "maneuver_count": 0}, "527": {"norad_id": "42954", "name": "VRSS-2", "tle1": "1 42954U 17060A   26162.30984248  .00000218  00000-0  34405-4 0  9994", "tle2": "2 42954  97.6520 200.3013 0018390 116.4113 243.8990 14.81182615467584", "object_type": "PAYLOAD", "criticality_score": 9.0, "last_updated": "2026-06-11T13:56:27.956741+00:00", "maneuver_count": 0}}}