OBJECT_NAME,OBJECT_ID,EPOCH,MEAN_MOTION,ECCENTRICITY,INCLINATION,RA_OF_ASC_NODE,ARG_OF_PERICENTER,MEAN_ANOMALY,EPHEMERIS_TYPE,CLASSIFICATION_TYPE,NORAD_CAT_ID,ELEMENT_SET_NO,REV_AT_EPOCH,BSTAR,MEAN_MOTION_DOT,MEAN_MOTION_DDOT
TANSAT,2016-081A,2026-06-11T06:51:40.494240,14.59946641,.00199556,98.5366,162.3692,331.2440,28.7658,0,U,41898,999,50376,.10778563E-3,.467E-5,0
JILIN-1 03,2017-002B,2026-06-11T05:57:49.788288,15.41431560,.0006039,97.1948,169.4170,172.7390,187.3946,0,U,41914,999,52094,.26202508E-3,.10886E-3,0
CARTOSAT-2D,2017-008A,2026-06-11T07:07:15.717216,15.19288324,.00036504,97.4114,221.7122,256.5749,103.5079,0,U,41948,999,51668,.14335882E-3,.2957E-4,0
CARTOSAT-2E,2017-036C,2026-06-11T07:32:37.780224,15.19275677,.00027307,97.4277,222.2136,345.1869,14.9285,0,U,42767,999,49725,.15812563E-3,.3267E-4,0
D-SAT,2017-036AF,2026-06-11T05:26:54.477024,15.16973581,.00818072,97.5550,141.1584,181.1002,179.0064,0,U,42794,999,48995,.24554671E-3,.521E-4,0
IRIDIUM 113,2017-039A,2026-06-11T04:05:31.241472,14.34217598,.00023151,86.3966,324.6945,89.7880,270.3581,0,U,42803,999,47032,.10195698E-4,.48E-6,0
NORSAT 2,2017-042D,2026-06-11T05:47:55.580064,15.21810578,.00107787,97.4033,335.7777,75.9362,284.3072,0,U,42828,999,48683,.39288245E-3,.8869E-4,0
TECHNOSAT,2017-042E,2026-06-11T04:46:07.920192,15.04916875,.00187857,97.4261,320.0853,113.2228,247.0979,0,U,42829,999,48580,.2180138E-3,.3039E-4,0
FLYING LAPTOP,2017-042G,2026-06-11T07:40:11.437248,15.01107587,.00192752,97.4660,318.0797,140.7203,219.5424,0,U,42831,999,48557,.26502386E-3,.3348E-4,0
WNISAT 1R,2017-042L,2026-06-11T03:52:56.899488,15.01736332,.0010427,97.4829,318.5000,167.7200,192.4281,0,U,42835,999,48560,.15563915E-3,.1969E-4,0
LEMUR-2-GREENBERG,2017-042N,2026-06-10T17:57:22.000320,15.31129963,.00091491,97.3819,342.4043,36.3346,323.8515,0,U,42837,999,48740,.48598029E-3,.14567E-3,0
LEMUR-2-FURIAUS,2017-042R,2026-06-10T09:50:59.191584,15.30030493,.00085013,97.3771,340.0388,89.8327,270.3888,0,U,42840,999,48717,.5665163E-3,.16426E-3,0
CORVUS BC2,2017-042X,2026-06-11T00:24:10.166976,15.06253815,.00141915,97.4050,323.6077,129.5203,230.7282,0,U,42846,999,48613,.18161414E-3,.2611E-4,0
CORVUS BC1,2017-042Y,2026-06-10T22:41:46.032288,15.06422630,.00131899,97.4079,324.3490,108.3664,251.8999,0,U,42847,999,48615,.22393883E-3,.3247E-4,0
VRSS-2,2017-060A,2026-06-11T07:26:10.390272,14.81182615,.00183895,97.6520,200.3013,116.4113,243.8990,0,U,42954,999,46758,.34405296E-4,.218E-5,0
MOHAMMED VI-A,2017-070A,2026-06-11T07:36:53.237376,14.77062882,.00014644,97.9556,234.7293,73.9382,286.1989,0,U,43005,999,46311,.10851148E-3,.715E-5,0
FENGYUN 3D,2017-072A,2026-06-11T05:27:33.865056,14.19738182,.00026622,99.0121,136.5421,71.3717,288.7747,0,U,43010,999,44414,.39302324E-4,.37E-6,0
CZ-4C R/B,2017-072C,2026-06-11T05:03:22.675968,14.58776196,.01226999,98.5789,270.0148,169.7864,190.5871,0,U,43012,999,45576,.94108834E-4,.431E-5,0
NOAA 20 (JPSS-1),2017-073A,2026-06-11T05:18:53.214336,14.19510667,.00003719,98.7772,101.7371,53.8840,306.2370,0,U,43013,999,44362,.41839743E-4,.44E-6,0
MAKERSAT 0,2017-073D,2026-06-10T21:49:47.800128,15.31878725,.01056255,97.4633,44.3797,295.7456,63.2913,0,U,43016,999,46550,.47401268E-3,.17326E-3,0
RADFXSAT (FOX-1B),2017-073E,2026-06-11T02:56:05.640000,15.12618427,.01505073,97.4719,29.4615,350.2461,9.5854,0,U,43017,999,46447,.36925361E-3,.8448E-4,0
JILIN-1 04,2017-074A,2026-06-11T05:56:02.727456,15.42292213,.00036455,97.4849,271.7023,198.2132,161.8985,0,U,43022,999,47335,.26470145E-3,.11309E-3,0
JILIN-1 05,2017-074B,2026-06-11T05:59:37.336416,15.33781781,.00039241,97.4856,268.3242,239.4664,120.6191,0,U,43023,999,47309,.21907523E-3,.7077E-4,0
JILIN-1 06,2017-074C,2026-06-11T05:17:44.947104,15.33626984,.00053505,97.4783,265.3118,256.8520,103.2126,0,U,43024,999,47292,.14558961E-3,.4653E-4,0
IRIDIUM 116,2017-083C,2026-06-11T00:08:03.166944,14.34217473,.00018856,86.3959,324.5864,95.2789,264.8622,0,U,43072,999,44328,.5362342E-5,.35E-6,0
IRIDIUM 130,2017-083D,2026-06-10T23:22:23.076480,14.34217327,.00018399,86.3964,324.8745,88.9003,271.2403,0,U,43073,999,44322,-.4435793E-4,-.104E-5,0
LKW-2,2017-084A,2026-06-11T06:13:15.370752,15.26262196,.00003916,97.1200,202.3326,199.8282,160.2942,0,U,43080,999,47078,.26663892E-3,.6842E-4,0
SUPERVIEW-1 03,2018-002A,2026-06-11T05:59:23.725824,15.39054024,.0046859,97.3134,247.0969,200.7916,159.1426,0,U,43099,999,46745,.38180516E-3,.15267E-3,0
CARTOSAT-2F,2018-004A,2026-06-11T05:09:02.801664,15.19168158,.00002939,97.4795,221.9071,292.3489,67.7714,0,U,43111,999,46642,.15622201E-3,.3216E-4,0
LKW-3,2018-006A,2026-06-11T06:04:02.238816,15.35131234,.00025408,97.6603,322.5958,350.9204,9.1992,0,U,43146,999,46780,.24855376E-3,.839E-4,0
